NORAD_CAT_ID,OBJECT_NAME,OBJECT_TYPE,EPOCH,MEAN_MOTION,ECCENTRICITY,INCLINATION,RA_OF_ASC_NODE,ARG_OF_PERICENTER,MEAN_ANOMALY,BSTAR,MEAN_MOTION_DOT,MEAN_MOTION_DDOT,TLE_LINE0,TLE_LINE1,TLE_LINE2,SEMIMAJOR_AXIS,PERIOD,APOGEE,PERIGEE,DECAYED
53140.0,STARLINK-4170,PAYLOAD,2024-07-04 14:40:56,15.08850721,0.0001153,53.2166,46.3395,76.2163,283.8958,0.00088296,0.00013796,0.0,0 STARLINK-4170,1 53140U 22083J   24186.61176747  .00013796  00000-0  88296-3 0  9990,2 53140  53.2166  46.3395 0001153  76.2163 283.8958 15.08850721108664,6917.848,95.437,540.51,538.915,0.0
53140.0,STARLINK-4170,PAYLOAD,2024-07-04 21:02:28,15.08862522,0.0001183,53.2174,45.1471,96.801,263.3117,0.0010605,0.00016641,0.0,0 STARLINK-4170,1 53140U 22083J   24186.87672325  .00016641  00000-0  10605-2 0  9991,2 53140  53.2174  45.1471 0001183  96.8010 263.3117 15.08862522109334,6917.812,95.436,540.495,538.858,0.0
53140.0,STARLINK-4170,PAYLOAD,2024-07-05 00:13:14,15.08866567,0.0001163,53.2174,44.5526,95.8856,264.2269,0.0010538,0.00016535,0.0,0 STARLINK-4170,1 53140U 22083J   24187.00920111  .00016535  00000-0  10538-2 0  9993,2 53140  53.2174  44.5526 0001163  95.8856 264.2269 15.08866567108726,6917.799,95.436,540.469,538.86,0.0
53140.0,STARLINK-4170,PAYLOAD,2024-07-05 20:53:15,15.08845187,8.96e-05,53.2171,40.6891,50.457,309.6501,0.00018923,2.726e-05,0.0,0 STARLINK-4170,1 53140U 22083J   24187.87032193  .00002726  00000-0  18923-3 0  9996,2 53140  53.2171  40.6891 0000896  50.4570 309.6501 15.08845187109489,6917.865,95.437,540.349,539.11,0.0
53140.0,STARLINK-4170,PAYLOAD,2024-07-06 20:44:03,15.08836638,0.0001011,53.2172,36.2258,66.6288,293.4811,2.2232e-05,6.6e-07,0.0,0 STARLINK-4170,1 53140U 22083J   24188.86392677  .00000066  00000-0  22232-4 0  9996,2 53140  53.2172  36.2258 0001011  66.6288 293.4811 15.08836638109635,6917.891,95.438,540.455,539.056,0.0
53140.0,STARLINK-4170,PAYLOAD,2024-07-07 06:16:21,15.08845693,0.0001011,53.2176,34.4418,68.5393,291.5707,0.0001717,2.446e-05,0.0,0 STARLINK-4170,1 53140U 22083J   24189.26136344  .00002446  00000-0  17170-3 0  9996,2 53140  53.2176  34.4418 0001011  68.5393 291.5707 15.08845693109695,6917.863,95.437,540.427,539.029,0.0
53140.0,STARLINK-4170,PAYLOAD,2024-07-07 18:59:27,15.08830172,0.0001097,53.218,32.0668,76.3467,283.7647,3.7779e-05,3.13e-06,0.0,0 STARLINK-4170,1 53140U 22083J   24189.79129263  .00000313  00000-0  37779-4 0  9995,2 53140  53.2180  32.0668 0001097  76.3467 283.7647 15.08830172109775,6917.91,95.438,540.534,539.017,0.0
53140.0,STARLINK-4170,PAYLOAD,2024-07-08 06:07:08,15.08844996,0.0001126,53.2188,29.9832,90.1487,269.9634,0.00019773,2.861e-05,0.0,0 STARLINK-4170,1 53140U 22083J   24190.25496463  .00002861  00000-0  19773-3 0  9990,2 53140  53.2188  29.9832 0001126  90.1487 269.9634 15.08844996109849,6917.865,95.437,540.509,538.951,0.0
53140.0,STARLINK-4170,PAYLOAD,2024-07-08 18:50:14,15.08834904,0.0001095,53.2187,27.6089,107.282,252.8292,2.1096e-05,4.8e-07,0.0,0 STARLINK-4170,1 53140U 22083J   24190.78489098  .00000048  00000-0  21096-4 0  9991,2 53140  53.2187  27.6089 0001095 107.2820 252.8292 15.08834904109921,6917.896,95.438,540.518,539.003,0.0
53140.0,STARLINK-4170,PAYLOAD,2024-07-09 12:19:28,15.08846808,0.0002374,53.2183,24.3325,84.2921,275.8341,0.00025981,3.85e-05,0.0,0 STARLINK-4170,1 53140U 22083J   24191.51353007  .00003850  00000-0  25981-3 0  9993,2 53140  53.2183  24.3325 0002374  84.2921 275.8341 15.08846808110031,6917.86,95.437,541.367,538.082,0.0
53140.0,STARLINK-4170,PAYLOAD,2024-07-09 20:16:24,15.08834161,0.0001126,53.2179,22.8455,89.839,270.2731,3.1412e-06,-2.38e-06,0.0,0 STARLINK-4170,1 53140U 22083J   24191.84473369 -.00000238  00000-0  31412-5 0  9999,2 53140  53.2179  22.8455 0001126  89.8390 270.2731 15.08834161110084,6917.898,95.438,540.542,538.984,0.0
53140.0,STARLINK-4170,PAYLOAD,2024-07-09 21:51:48,15.08837069,0.0001253,53.2186,22.5486,95.1123,265.0012,6.6006e-05,7.63e-06,0.0,0 STARLINK-4170,1 53140U 22083J   24191.91097437  .00000763  00000-0  66006-4 0  9993,2 53140  53.2186  22.5486 0001253  95.1123 265.0012 15.08837069109462,6917.889,95.438,540.621,538.888,0.0
53140.0,STARLINK-4170,PAYLOAD,2024-07-10 12:10:16,15.08844357,0.0001586,53.2158,19.8741,78.5474,281.5696,0.00031022,4.653e-05,0.0,0 STARLINK-4170,1 53140U 22083J   24192.50713333  .00004653  00000-0  31022-3 0  9990,2 53140  53.2158  19.8741 0001586  78.5474 281.5696 15.08844357110187,6917.867,95.437,540.829,538.635,0.0
53140.0,STARLINK-4170,PAYLOAD,2024-07-10 20:07:12,15.08836449,0.0001062,53.217,18.3873,72.5528,287.558,8.9594e-05,1.138e-05,0.0,0 STARLINK-4170,1 53140U 22083J   24192.83833528  .00001138  00000-0  89594-4 0  9998,2 53140  53.2170  18.3873 0001062  72.5528 287.5580 15.08836449110231,6917.891,95.438,540.491,539.022,0.0
53140.0,STARLINK-4170,PAYLOAD,2024-07-11 12:01:03,15.08844366,0.000152,53.2168,15.4134,75.7228,284.3933,0.00018606,2.675e-05,0.0,0 STARLINK-4170,1 53140U 22083J   24193.50073479  .00002675  00000-0  18606-3 0  9996,2 53140  53.2168  15.4134 0001520  75.7228 284.3933 15.08844366109701,6917.867,95.437,540.784,538.681,0.0
53140.0,STARLINK-4170,PAYLOAD,2024-07-11 18:22:36,15.08844251,0.0001214,53.217,14.224,73.4511,286.6614,0.00025001,3.694e-05,0.0,0 STARLINK-4170,1 53140U 22083J   24193.76569450  .00003694  00000-0  25001-3 0  9992,2 53140  53.2170  14.2240 0001214  73.4511 286.6614 15.08844251109747,6917.867,95.437,540.572,538.893,0.0
53140.0,STARLINK-4170,PAYLOAD,2024-07-12 11:51:50,15.08847259,0.0001981,53.2168,10.9523,78.2412,281.8803,0.00027146,4.036e-05,0.0,0 STARLINK-4170,1 53140U 22083J   24194.49433550  .00004036  00000-0  27146-3 0  9997,2 53140  53.2168  10.9523 0001981  78.2412 281.8803 15.08847259110486,6917.858,95.437,541.094,538.353,0.0
53140.0,STARLINK-4170,PAYLOAD,2024-07-12 18:13:23,15.08843437,0.0001407,53.2161,9.7622,83.2648,276.8505,0.00017257,2.46e-05,0.0,0 STARLINK-4170,1 53140U 22083J   24194.75929509  .00002460  00000-0  17257-3 0  9991,2 53140  53.2161   9.7622 0001407  83.2648 276.8505 15.08843437109895,6917.87,95.437,540.708,538.762,0.0
53140.0,STARLINK-4170,PAYLOAD,2024-07-13 14:53:23,15.08842315,0.000122,53.2181,5.8962,91.0066,269.1066,0.00013736,1.899e-05,0.0,0 STARLINK-4170,1 53140U 22083J   24195.62041590  .00001899  00000-0  13736-3 0  9996,2 53140  53.2181   5.8962 0001220  91.0066 269.1066 15.08842315110023,6917.873,95.437,540.582,538.894,0.0
53140.0,STARLINK-4170,PAYLOAD,2024-07-13 18:04:10,15.08842668,0.0001245,53.2189,5.3011,94.6473,265.4661,0.00013359,1.839e-05,0.0,0 STARLINK-4170,1 53140U 22083J   24195.75289578  .00001839  00000-0  13359-3 0  9995,2 53140  53.2189   5.3011 0001245  94.6473 265.4661 15.08842668110671,6917.872,95.437,540.599,538.876,0.0
53140.0,STARLINK-4170,PAYLOAD,2024-07-13 21:14:56,15.0884437,0.000125,53.2188,4.7064,94.4317,265.6818,0.00017976,2.574e-05,0.0,0 STARLINK-4170,1 53140U 22083J   24195.88537555  .00002574  00000-0  17976-3 0  9996,2 53140  53.2188   4.7064 0001250  94.4317 265.6818 15.08844370110063,6917.867,95.437,540.597,538.867,0.0
53140.0,STARLINK-4170,PAYLOAD,2024-07-14 14:44:10,15.08851055,0.0001355,53.2187,1.4347,89.9958,270.1189,-0.00016678,-2.942e-05,0.0,0 STARLINK-4170,1 53140U 22083J   24196.61401058 -.00002942  00000-0 -16678-3 0  9995,2 53140  53.2187   1.4347 0001355  89.9958 270.1189 15.08851055110178,6917.847,95.437,540.649,538.774,0.0
53140.0,STARLINK-4170,PAYLOAD,2024-07-14 19:30:20,15.08847351,0.0001108,53.2186,0.5425,79.3855,280.7262,0.00020365,2.955e-05,0.0,0 STARLINK-4170,1 53140U 22083J   24196.81273401  .00002955  00000-0  20365-3 0  9996,2 53140  53.2186   0.5425 0001108  79.3855 280.7262 15.08847351110835,6917.858,95.437,540.489,538.956,0.0
53140.0,STARLINK-4170,PAYLOAD,2024-07-15 03:27:15,15.08862168,0.000107,53.2188,359.0554,78.4022,281.709,0.0004049,6.166e-05,0.0,0 STARLINK-4170,1 53140U 22083J   24197.14392475  .00006166  00000-0  40490-3 0  9995,2 53140  53.2188 359.0554 0001070  78.4022 281.7090 15.08862168110884,6917.813,95.436,540.418,538.937,0.0
53140.0,STARLINK-4170,PAYLOAD,2024-07-15 11:24:12,15.08823255,0.0001021,53.2171,357.5688,79.4724,280.6383,-0.00026629,-4.521e-05,0.0,0 STARLINK-4170,1 53140U 22083J   24197.47514127 -.00004521  00000-0 -26629-3 0  9994,2 53140  53.2171 357.5688 0001021  79.4724 280.6383 15.08823255110936,6917.932,95.439,540.503,539.09,0.0
53140.0,STARLINK-4170,PAYLOAD,2024-07-15 14:34:58,15.08827121,0.0001372,53.2171,356.9733,75.3868,284.7277,-0.00018026,-3.155e-05,0.0,0 STARLINK-4170,1 53140U 22083J   24197.60762151 -.00003155  00000-0 -18026-3 0  9995,2 53140  53.2171 356.9733 0001372  75.3868 284.7277 15.08827121110329,6917.92,95.438,540.734,538.836,0.0
53140.0,STARLINK-4170,PAYLOAD,2024-07-15 17:45:44,15.08836783,0.000136,53.2187,356.3826,90.9769,269.1379,1.2735e-05,-8.5e-07,0.0,0 STARLINK-4170,1 53140U 22083J   24197.74009975 -.00000085  00000-0  12735-4 0  9998,2 53140  53.2187 356.3826 0001360  90.9769 269.1379 15.08836783110978,6917.89,95.438,540.696,538.814,0.0
53140.0,STARLINK-4170,PAYLOAD,2024-07-16 03:18:02,15.08852034,0.0001295,53.2186,354.5979,87.5816,272.5325,0.0003078,4.616e-05,0.0,0 STARLINK-4170,1 53140U 22083J   24198.13753271  .00004616  00000-0  30780-3 0  9999,2 53140  53.2186 354.5979 0001295  87.5816 272.5325 15.08852034111032,6917.844,95.437,540.604,538.813,0.0
53140.0,STARLINK-4170,PAYLOAD,2024-07-16 09:39:35,15.08839429,0.0001699,53.2181,353.407,78.8847,281.2336,9.8972e-05,1.287e-05,0.0,0 STARLINK-4170,1 53140U 22083J   24198.40249880  .00001287  00000-0  98972-4 0  9994,2 53140  53.2181 353.4070 0001699  78.8847 281.2336 15.08839429111078,6917.882,95.438,540.922,538.572,0.0
53140.0,STARLINK-4170,PAYLOAD,2024-07-16 14:25:45,15.08838974,0.0001427,53.2179,352.5153,83.6219,276.4936,0.00028083,4.184e-05,0.0,0 STARLINK-4170,1 53140U 22083J   24198.60121962  .00004184  00000-0  28083-3 0  9990,2 53140  53.2179 352.5153 0001427  83.6219 276.4936 15.08838974110472,6917.884,95.438,540.736,538.761,0.0
